STARLINK-37014          
1 68216U 26053K   26086.91667824  .00001536  00000+0  87625-5 0  9991
2 68216  97.2815 322.0623 0001058 102.6383  25.1181 15.80801299  2948
STARLINK-37011          
1 68217U 26053L   26086.91667824  .00051419  00000+0  26808-3 0  9991
2 68217  97.2814 322.0645 0001201  85.1839  46.8497 15.80777325  2945
STARLINK-37108          
1 68218U 26053M   26086.91667824  .00009800  00000+0  51910-4 0  9992
2 68218  97.2809 322.0652 0001439 102.6162  33.6970 15.80787386  2943
STARLINK-37106          
1 68219U 26053N   26086.91667824  .00029992  00000+0  15695-3 0  9996
2 68219  97.2807 322.0678 0000792  86.8656  53.7094 15.80792938  2941
STARLINK-37030          
1 68220U 26053P   26086.91667824 -.00282960  00000+0 -15129-2 0  9997
2 68220  97.2800 322.0711 0001119  86.2786  62.7515 15.80988086  2945
STARLINK-37012          
1 68221U 26053Q   26086.91667824 -.00129708  00000+0 -68414-3 0  9994
2 68221  97.2797 322.0688 0001160  92.5842  52.2231 15.80892096  2947
STARLINK-37110          
1 68222U 26053R   26086.91667824 -.00510740  00000+0 -27817-2 0  9996
2 68222  97.2797 322.0724 0001060  92.4712  60.7486 15.81150259  2948
STARLINK-37025          
1 68223U 26053S   26086.91667824 -.00705311  00000+0 -39026-2 0  9992
2 68223  97.2789 322.0733 0000902  99.2673  58.1415 15.81288609  2949
STARLINK-36977          
1 68224U 26053T   26086.91667824 -.00994956  00000+0 -56234-2 0  9998
2 68224  97.2786 322.0748 0001271  68.6960  92.8264 15.81553883  2836
STARLINK-36960          
1 68225U 26053U   26086.91667824 -.01333324  00000+0 -75591-2 0  9993
2 68225  97.2782 322.0762 0001453  96.5881  69.0087 15.81846590  2922
STARLINK-37038          
1 68226U 26053V   26086.91667824 -.01653523  00000+0 -92717-2 0  9999
2 68226  97.2781 322.0801 0001615  94.3316  79.4604 15.82243822  2925
STARLINK-37083          
1 68227U 26053W   26086.91667824 -.01538714  00000+0 -86114-2 0  9998
2 68227  97.2785 322.0793 0001615  89.8261  79.8642 15.82064036  2944
