CCSDS_OMM_VERS = 2.0
CREATION_DATE  = 
ORIGINATOR     = 

OBJECT_NAME    = STARLINK-37014
OBJECT_ID      = 2026-053K
CENTER_NAME    = EARTH
REF_FRAME      = TEME
TIME_SYSTEM    = UTC
MEAN_ELEMENT_THEORY = SGP/SGP4

EPOCH          = 2026-03-27T22:00:00.999936
MEAN_MOTION    = 15.80801299
ECCENTRICITY   = .00010583
INCLINATION    = 97.2815
RA_OF_ASC_NODE = 322.0623
ARG_OF_PERICENTER = 102.6383
MEAN_ANOMALY   = 25.1181

EPHEMERIS_TYPE = 0
CLASSIFICATION_TYPE = U
NORAD_CAT_ID   = 68216
ELEMENT_SET_NO = 999
REV_AT_EPOCH   = 294
BSTAR          = .876249E-5
MEAN_MOTION_DOT = .1536E-4
MEAN_MOTION_DDOT = 0

CCSDS_OMM_VERS = 2.0
CREATION_DATE  = 
ORIGINATOR     = 

OBJECT_NAME    = STARLINK-37011
OBJECT_ID      = 2026-053L
CENTER_NAME    = EARTH
REF_FRAME      = TEME
TIME_SYSTEM    = UTC
MEAN_ELEMENT_THEORY = SGP/SGP4

EPOCH          = 2026-03-27T22:00:00.999936
MEAN_MOTION    = 15.80777325
ECCENTRICITY   = .0001201
INCLINATION    = 97.2814
RA_OF_ASC_NODE = 322.0645
ARG_OF_PERICENTER = 85.1839
MEAN_ANOMALY   = 46.8497

EPHEMERIS_TYPE = 0
CLASSIFICATION_TYPE = U
NORAD_CAT_ID   = 68217
ELEMENT_SET_NO = 999
REV_AT_EPOCH   = 294
BSTAR          = .26807763E-3
MEAN_MOTION_DOT = .51419E-3
MEAN_MOTION_DDOT = 0

CCSDS_OMM_VERS = 2.0
CREATION_DATE  = 
ORIGINATOR     = 

OBJECT_NAME    = STARLINK-37108
OBJECT_ID      = 2026-053M
CENTER_NAME    = EARTH
REF_FRAME      = TEME
TIME_SYSTEM    = UTC
MEAN_ELEMENT_THEORY = SGP/SGP4

EPOCH          = 2026-03-27T22:00:00.999936
MEAN_MOTION    = 15.80787386
ECCENTRICITY   = .0001439
INCLINATION    = 97.2809
RA_OF_ASC_NODE = 322.0652
ARG_OF_PERICENTER = 102.6162
MEAN_ANOMALY   = 33.6970

EPHEMERIS_TYPE = 0
CLASSIFICATION_TYPE = U
NORAD_CAT_ID   = 68218
ELEMENT_SET_NO = 999
REV_AT_EPOCH   = 294
BSTAR          = .51909548E-4
MEAN_MOTION_DOT = .98E-4
MEAN_MOTION_DDOT = 0

CCSDS_OMM_VERS = 2.0
CREATION_DATE  = 
ORIGINATOR     = 

OBJECT_NAME    = STARLINK-37106
OBJECT_ID      = 2026-053N
CENTER_NAME    = EARTH
REF_FRAME      = TEME
TIME_SYSTEM    = UTC
MEAN_ELEMENT_THEORY = SGP/SGP4

EPOCH          = 2026-03-27T22:00:00.999936
MEAN_MOTION    = 15.80792938
ECCENTRICITY   = .00007926
INCLINATION    = 97.2807
RA_OF_ASC_NODE = 322.0678
ARG_OF_PERICENTER = 86.8656
MEAN_ANOMALY   = 53.7094

EPHEMERIS_TYPE = 0
CLASSIFICATION_TYPE = U
NORAD_CAT_ID   = 68219
ELEMENT_SET_NO = 999
REV_AT_EPOCH   = 294
BSTAR          = .1569472E-3
MEAN_MOTION_DOT = .29992E-3
MEAN_MOTION_DDOT = 0

CCSDS_OMM_VERS = 2.0
CREATION_DATE  = 
ORIGINATOR     = 

OBJECT_NAME    = STARLINK-37030
OBJECT_ID      = 2026-053P
CENTER_NAME    = EARTH
REF_FRAME      = TEME
TIME_SYSTEM    = UTC
MEAN_ELEMENT_THEORY = SGP/SGP4

EPOCH          = 2026-03-27T22:00:00.999936
MEAN_MOTION    = 15.80988086
ECCENTRICITY   = .00011197
INCLINATION    = 97.2800
RA_OF_ASC_NODE = 322.0711
ARG_OF_PERICENTER = 86.2786
MEAN_ANOMALY   = 62.7515

EPHEMERIS_TYPE = 0
CLASSIFICATION_TYPE = U
NORAD_CAT_ID   = 68220
ELEMENT_SET_NO = 999
REV_AT_EPOCH   = 294
BSTAR          = -.15128853E-2
MEAN_MOTION_DOT = -.28296E-2
MEAN_MOTION_DDOT = 0

CCSDS_OMM_VERS = 2.0
CREATION_DATE  = 
ORIGINATOR     = 

OBJECT_NAME    = STARLINK-37012
OBJECT_ID      = 2026-053Q
CENTER_NAME    = EARTH
REF_FRAME      = TEME
TIME_SYSTEM    = UTC
MEAN_ELEMENT_THEORY = SGP/SGP4

EPOCH          = 2026-03-27T22:00:00.999936
MEAN_MOTION    = 15.80892096
ECCENTRICITY   = .00011601
INCLINATION    = 97.2797
RA_OF_ASC_NODE = 322.0688
ARG_OF_PERICENTER = 92.5842
MEAN_ANOMALY   = 52.2231

EPHEMERIS_TYPE = 0
CLASSIFICATION_TYPE = U
NORAD_CAT_ID   = 68221
ELEMENT_SET_NO = 999
REV_AT_EPOCH   = 294
BSTAR          = -.6841437E-3
MEAN_MOTION_DOT = -.129708E-2
MEAN_MOTION_DDOT = 0

CCSDS_OMM_VERS = 2.0
CREATION_DATE  = 
ORIGINATOR     = 

OBJECT_NAME    = STARLINK-37110
OBJECT_ID      = 2026-053R
CENTER_NAME    = EARTH
REF_FRAME      = TEME
TIME_SYSTEM    = UTC
MEAN_ELEMENT_THEORY = SGP/SGP4

EPOCH          = 2026-03-27T22:00:00.999936
MEAN_MOTION    = 15.81150259
ECCENTRICITY   = .00010602
INCLINATION    = 97.2797
RA_OF_ASC_NODE = 322.0724
ARG_OF_PERICENTER = 92.4712
MEAN_ANOMALY   = 60.7486

EPHEMERIS_TYPE = 0
CLASSIFICATION_TYPE = U
NORAD_CAT_ID   = 68222
ELEMENT_SET_NO = 999
REV_AT_EPOCH   = 294
BSTAR          = -.27817397E-2
MEAN_MOTION_DOT = -.51074E-2
MEAN_MOTION_DDOT = 0

CCSDS_OMM_VERS = 2.0
CREATION_DATE  = 
ORIGINATOR     = 

OBJECT_NAME    = STARLINK-37025
OBJECT_ID      = 2026-053S
CENTER_NAME    = EARTH
REF_FRAME      = TEME
TIME_SYSTEM    = UTC
MEAN_ELEMENT_THEORY = SGP/SGP4

EPOCH          = 2026-03-27T22:00:00.999936
MEAN_MOTION    = 15.81288609
ECCENTRICITY   = .00009025
INCLINATION    = 97.2789
RA_OF_ASC_NODE = 322.0733
ARG_OF_PERICENTER = 99.2673
MEAN_ANOMALY   = 58.1415

EPHEMERIS_TYPE = 0
CLASSIFICATION_TYPE = U
NORAD_CAT_ID   = 68223
ELEMENT_SET_NO = 999
REV_AT_EPOCH   = 294
BSTAR          = -.39026004E-2
MEAN_MOTION_DOT = -.705311E-2
MEAN_MOTION_DDOT = 0

CCSDS_OMM_VERS = 2.0
CREATION_DATE  = 
ORIGINATOR     = 

OBJECT_NAME    = STARLINK-36977
OBJECT_ID      = 2026-053T
CENTER_NAME    = EARTH
REF_FRAME      = TEME
TIME_SYSTEM    = UTC
MEAN_ELEMENT_THEORY = SGP/SGP4

EPOCH          = 2026-03-27T22:00:00.999936
MEAN_MOTION    = 15.81553883
ECCENTRICITY   = .00012713
INCLINATION    = 97.2786
RA_OF_ASC_NODE = 322.0748
ARG_OF_PERICENTER = 68.6960
MEAN_ANOMALY   = 92.8264

EPHEMERIS_TYPE = 0
CLASSIFICATION_TYPE = U
NORAD_CAT_ID   = 68224
ELEMENT_SET_NO = 999
REV_AT_EPOCH   = 283
BSTAR          = -.56234111E-2
MEAN_MOTION_DOT = -.994956E-2
MEAN_MOTION_DDOT = 0

CCSDS_OMM_VERS = 2.0
CREATION_DATE  = 
ORIGINATOR     = 

OBJECT_NAME    = STARLINK-36960
OBJECT_ID      = 2026-053U
CENTER_NAME    = EARTH
REF_FRAME      = TEME
TIME_SYSTEM    = UTC
MEAN_ELEMENT_THEORY = SGP/SGP4

EPOCH          = 2026-03-27T22:00:00.999936
MEAN_MOTION    = 15.81846590
ECCENTRICITY   = .00014537
INCLINATION    = 97.2782
RA_OF_ASC_NODE = 322.0762
ARG_OF_PERICENTER = 96.5881
MEAN_ANOMALY   = 69.0087

EPHEMERIS_TYPE = 0
CLASSIFICATION_TYPE = U
NORAD_CAT_ID   = 68225
ELEMENT_SET_NO = 999
REV_AT_EPOCH   = 292
BSTAR          = -.75590623E-2
MEAN_MOTION_DOT = -.1333324E-1
MEAN_MOTION_DDOT = 0

CCSDS_OMM_VERS = 2.0
CREATION_DATE  = 
ORIGINATOR     = 

OBJECT_NAME    = STARLINK-37038
OBJECT_ID      = 2026-053V
CENTER_NAME    = EARTH
REF_FRAME      = TEME
TIME_SYSTEM    = UTC
MEAN_ELEMENT_THEORY = SGP/SGP4

EPOCH          = 2026-03-27T22:00:00.999936
MEAN_MOTION    = 15.82243822
ECCENTRICITY   = .00016151
INCLINATION    = 97.2781
RA_OF_ASC_NODE = 322.0801
ARG_OF_PERICENTER = 94.3316
MEAN_ANOMALY   = 79.4604

EPHEMERIS_TYPE = 0
CLASSIFICATION_TYPE = U
NORAD_CAT_ID   = 68226
ELEMENT_SET_NO = 999
REV_AT_EPOCH   = 292
BSTAR          = -.92716798E-2
MEAN_MOTION_DOT = -.1653523E-1
MEAN_MOTION_DDOT = 0

CCSDS_OMM_VERS = 2.0
CREATION_DATE  = 
ORIGINATOR     = 

OBJECT_NAME    = STARLINK-37083
OBJECT_ID      = 2026-053W
CENTER_NAME    = EARTH
REF_FRAME      = TEME
TIME_SYSTEM    = UTC
MEAN_ELEMENT_THEORY = SGP/SGP4

EPOCH          = 2026-03-27T22:00:00.999936
MEAN_MOTION    = 15.82064036
ECCENTRICITY   = .00016153
INCLINATION    = 97.2785
RA_OF_ASC_NODE = 322.0793
ARG_OF_PERICENTER = 89.8261
MEAN_ANOMALY   = 79.8642

EPHEMERIS_TYPE = 0
CLASSIFICATION_TYPE = U
NORAD_CAT_ID   = 68227
ELEMENT_SET_NO = 999
REV_AT_EPOCH   = 294
BSTAR          = -.8611366E-2
MEAN_MOTION_DOT = -.1538714E-1
MEAN_MOTION_DDOT = 0

